ADRAS-J                 
1 58992U 24034A   24113.10846383  .00008153  00000+0  76873-3 0  9990
2 58992  98.2078  83.6293 0043093 232.1364 127.5953 14.93368491  9492
